AMC-3                   
1 24936U 97050A   25068.45675274 -.00000276  00000+0  00000+0 0  9990
2 24936   7.0047  69.2970 0003248 278.2187 272.2873  1.00271997 47771
ASTRA 2A                
1 25462U 98050A   25068.55380602  .00000052  00000+0  00000+0 0  9996
2 25462   5.9206  74.3642 0003489 269.2590  80.3930  1.00272323 97083
NSS-11                  
1 26554U 00059A   25068.86307163  .00000007  00000+0  00000+0 0  9996
2 26554   0.9236  86.9153 0003184 253.3256 314.2228  1.00270969 36632
AMC-6                   
1 26580U 00067A   25068.72991251  .00000071  00000+0  00000+0 0  9997
2 26580   0.0141 125.6367 0003451 240.2791 289.4553  1.00271869 89239
AMC-11                  
1 28252U 04017A   25068.52044397 -.00000067  00000+0  00000+0 0  9998
2 28252   0.0482 305.9788 0003058  30.1205 267.5787  1.00272130 76216
AMC-15                  
1 28446U 04041A   25068.87862322 -.00000106  00000+0  00000+0 0  9998
2 28446   0.0455 308.8052 0002339  44.4772  25.7650  1.00272563 74654
NSS-10                  
1 28526U 05003A   25068.74937372 -.00000267  00000+0  00000+0 0  9998
2 28526   5.2851  76.0484 0003121 264.1778  59.7566  1.00271933 48496
ASTRA 1KR               
1 29055U 06012A   25068.76058127  .00000102  00000+0  00000+0 0  9998
2 29055   0.0648 290.1553 0002954 357.3136 173.2099  1.00275388 41060
ASTRA 1L                
1 31306U 07016A   25068.86920013  .00000103  00000+0  00000+0 0  9999
2 31306   0.1284  68.4965 0004312 267.2784 164.2870  1.00273936 40333
ASTRA 4A                
1 32299U 07057A   25068.87475457  .00000015  00000+0  00000+0 0  9996
2 32299   0.0438 302.7380 0002978  32.1457 152.6005  1.00272013 46996
AMC-21                  
1 33275U 08038B   25068.50530663  .00000019  00000+0  00000+0 0  9996
2 33275   1.7462  86.2878 0002994 258.8040 239.3254  1.00271903 60830
ASTRA 1M                
1 33436U 08057A   25068.86920013  .00000102  00000+0  00000+0 0  9990
2 33436   0.0719  84.2918 0001539 315.2682 100.3043  1.00269938 59828
NSS-9                   
1 33749U 09008A   25068.86446172  .00000054  00000+0  00000+0 0  9999
2 33749   0.0655  70.5090 0002549 282.9670 308.5575  1.00270760 58862
SES-7 (PROTOSTAR 2)     
1 34941U 09027A   25068.84969206 -.00000363  00000+0  00000+0 0  9995
2 34941   0.0310  73.0016 0001878 220.1181 288.7827  1.00272893 57975
NSS-12                  
1 36032U 09058A   25068.81086679  .00000054  00000+0  00000+0 0  9999
2 36032   0.0541 300.1232 0003565  36.4628 180.0333  1.00272639 56262
SES-1                   
1 36516U 10016A   25068.87957890 -.00000132  00000+0  00000+0 0  9998
2 36516   0.0511 295.4999 0002636  48.6373  39.2908  1.00271596 54376
ASTRA 3B                
1 36581U 10021A   25068.86920013  .00000120  00000+0  00000+0 0  9998
2 36581   0.2652  91.0067 0002987 279.3783 133.8191  1.00274448 54216
SES-3                   
1 37748U 11035A   25068.87914450 -.00000119  00000+0  00000+0 0  9998
2 37748   0.1246  85.2366 0003042 262.4033  33.6266  1.00272077 49930
ASTRA 1N                
1 37775U 11041A   25068.86920013  .00000102  00000+0  00000+0 0  9997
2 37775   0.0876  54.4327 0005245 320.5612 124.8734  1.00273358 39877
SES-2                   
1 37809U 11049A   25068.88235907 -.00000213  00000+0  00000+0 0  9990
2 37809   0.0186 126.5564 0002738 229.5567  42.3454  1.00268900 49303
QUETZSAT 1              
1 37826U 11054A   25068.88427044 -.00000259  00000+0  00000+0 0  9990
2 37826   0.0448 299.8116 0002426  54.2961  55.0183  1.00272405 45216
SES-4                   
1 38087U 12007A   25068.75241453 -.00000185  00000+0  00000+0 0  9991
2 38087   0.0312  68.0310 0002461 293.0380  55.4778  1.00272715 47563
SES-5                   
1 38652U 12036A   25068.87475457  .00000016  00000+0  00000+0 0  9999
2 38652   0.0576 313.2468 0001909  27.6877 146.7319  1.00273302 39828
ASTRA 2F                
1 38778U 12051A   25068.86363973  .00000132  00000+0  00000+0 0  9992
2 38778   0.0797 257.8393 0002144  22.3551 226.6734  1.00275221 36485
SES-6                   
1 39172U 13026A   25068.89158997 -.00000279  00000+0  00000+0 0  9998
2 39172   0.0479 309.7305 0002216  39.4345  99.0995  1.00271070 43062
O3B FM5                 
1 39188U 13031A   25068.73225469 -.00000031  00000+0  00000+0 0  9999
2 39188   0.0539 341.2352 0002723  12.4053   6.3492  5.00115292213800
O3B FM2                 
1 39190U 13031C   25068.67955782 -.00000031  00000+0  00000+0 0  9993
2 39190   0.0457  18.4966 0002677 333.3338   8.1585  5.00115717213877
O3B PFM                 
1 39191U 13031D   25068.70502717 -.00000031  00000+0  00000+0 0  9994
2 39191   0.0513 350.6434 0002678 357.9804  11.3633  5.00115205213437
ASTRA 2E                
1 39285U 13056A   25068.86363973  .00000132  00000+0  00000+0 0  9992
2 39285   0.0835 314.0753 0002871  32.5529 160.5145  1.00272943 41760
SES-8                   
1 39460U 13071A   25068.81641898 -.00000287  00000+0  00000+0 0  9996
2 39460   0.0298 255.3434 0001722 115.9353 185.3594  1.00270801 39778
ASTRA 5B                
1 39617U 14011B   25068.86920013  .00000119  00000+0  00000+0 0  9992
2 39617   0.0193 352.4054 0003732 336.5209 175.2449  1.00271261 40216
O3B FM3                 
1 40079U 14038A   25068.16029360 -.00000030  00000+0  00000+0 0  9996
2 40079   0.0464   2.6670 0004844 326.0915  31.2060  5.00114851194880
O3B FM7                 
1 40080U 14038B   25068.70610746 -.00000031  00000+0  00000+0 0  9993
2 40080   0.0427   5.7270 0002119  27.0672 327.2121  5.00115347194643
O3B FM6                 
1 40081U 14038C   25068.73320526 -.00000031  00000+0  00000+0 0  9991
2 40081   0.0471   3.7050 0002785 346.3072   9.9754  5.00115563194597
O3B FM8                 
1 40082U 14038D   25068.58676824 -.00000031  00000+0  00000+0 0  9990
2 40082   0.0461   4.1830 0002660 342.0506  13.7524  5.00115690194707
O3B FM10                
1 40348U 14083A   25067.41389150 -.00000029  00000+0  00000+0 0  9996
2 40348   0.0536 355.3496 0002677 356.8287   7.8111  5.00115030186593
O3B FM11                
1 40349U 14083B   25068.62640521 -.00000031  00000+0  00000+0 0  9996
2 40349   0.0490 353.1257 0002709  10.8765 355.9931  5.00115685186670
O3B FM12                
1 40350U 14083C   25068.85355390 -.00000031  00000+0  00000+0 0  9990
2 40350   0.0491 354.1567 0002851 356.2572   9.5738  5.00115785186688
O3B FM9                 
1 40351U 14083D   25067.28115893 -.00000029  00000+0  00000+0 0  9996
2 40351   0.0483 351.9133 0002661 357.9921  10.0828  5.00115434186766
ASTRA 2G                
1 40364U 14089A   25068.76231888  .00000132  00000+0  00000+0 0  9997
2 40364   0.0532 353.4250 0004299  34.4563  82.4048  1.00274361 37314
SES-9                   
1 41380U 16013A   25068.84969206 -.00000363  00000+0  00000+0 0  9993
2 41380   0.0372 289.5463 0001425 101.2846 191.0924  1.00272473 32783
SES-10                  
1 42432U 17017A   25068.88629027 -.00000290  00000+0  00000+0 0  9994
2 42432   0.0136  76.7922 0002571 273.2535  69.9081  1.00272767 29086
SES-15                  
1 42709U 17026A   25068.73112884  .00000043  00000+0  00000+0 0  9998
2 42709   0.0369  65.7934 0000566 266.8300 329.0430  1.00270004  2780
SES-11 (ECHOSTAR 105)   
1 42967U 17063A   25068.87879698 -.00000106  00000+0  00000+0 0  9994
2 42967   0.0424 301.8068 0003164  35.2494  42.1353  1.00271451 27061
SES-14                  
1 43175U 18012B   25068.53278098 -.00000296  00000+0  00000+0 0  9991
2 43175   0.0189 120.8966 0001034 209.6658 341.2138  1.00269561 26376
O3B FM15                
1 43231U 18024A   25067.74751101 -.00000030  00000+0  00000+0 0  9996
2 43231   0.0562 357.2920 0003046 352.5998  10.0955  5.00115316127743
O3B FM16                
1 43232U 18024B   25068.59963784 -.00000031  00000+0  00000+0 0  9994
2 43232   0.0603 357.9472 0003008 353.3405   8.7002  5.00115613127702
O3B FM14                
1 43233U 18024C   25068.64016867 -.00000031  00000+0  00000+0 0  9992
2 43233   0.0610 359.1885 0002790 348.4391  12.3588  5.00115227127711
O3B FM13                
1 43234U 18024D   25055.90046087 -.00000016  00000+0  00000+0 0  9998
2 43234   0.0449 326.2729 0003511  13.9713  19.7377  5.00115330127181
SES-12                  
1 43488U 18049A   25068.81641898 -.00000287  00000+0  00000+0 0  9991
2 43488   0.0245  67.9207 0002174 227.7036 260.9995  1.00268751 24761
O3B FM20                
1 44112U 19020A   25068.86606785 -.00000031  00000+0  00000+0 0  9994
2 44112   0.0528 356.6317 0003228 359.6370   3.7220  5.00115239108333
O3B FM19                
1 44113U 19020B   25055.50068721 -.00000016  00000+0  00000+0 0  9997
2 44113   0.0343 340.2308 0001808  24.8096 354.9571  5.00115336107546
O3B FM17                
1 44114U 19020C   25067.97371062 -.00000030  00000+0  00000+0 0  9993
2 44114   0.0620  14.2065 0003095 335.4206  10.3599  5.00115107108255
O3B FM18                
1 44115U 19020D   25068.71947637 -.00000031  00000+0  00000+0 0  9995
2 44115   0.0528 356.3394 0002917 351.6210  12.0258  5.00115046108416
SES-17                  
1 49332U 21095A   25068.52913200 -.00000289  00000+0  00000+0 0  9999
2 49332   0.0137  93.9881 0000718 222.3968 334.4360  1.00271248 13192
SES-22                  
1 52933U 22071A   25068.72913059  .00000087  00000+0  00000+0 0  9994
2 52933   0.0187 128.1990 0001288 204.0527 318.8606  1.00270666  2865
SES-20                  
1 53960U 22123A   25068.52200781 -.00000118  00000+0  00000+0 0  9998
2 53960   0.0121 155.5102 0001309 268.3374 188.3974  1.00270816  8872
SES-21                  
1 53961U 22123B   25068.34141764  .00000052  00000+0  00000+0 0  9990
2 53961   0.0240  68.4188 0001426 278.7477 172.0034  1.00274894  2556
O3B MPOWER F1           
1 54755U 22174A   25068.71939999 -.00000031  00000+0  00000+0 0  9992
2 54755   0.0386   1.0821 0005190 332.4413 247.3004  5.00116721 42124
O3B MPOWER F2           
1 54756U 22174B   25068.73028171 -.00000031  00000+0  00000+0 0  9996
2 54756   0.0388   6.8218 0005833 340.8269  12.3301  5.00116490 42208
SES-18                  
1 55970U 23038A   25068.87914450 -.00000118  00000+0  00000+0 0  9990
2 55970   0.0569 270.3503 0002530  34.8303  75.9819  1.00272664  7441
SES-19                  
1 55971U 23038B   25068.72991251  .00000071  00000+0  00000+0 0  9996
2 55971   0.0382 287.5406 0001708  60.2331 307.7169  1.00269862  7414
O3B MPOWER F4           
1 56367U 23059A   25068.42999912 -.00000031  00000+0  00000+0 0  9995
2 56367   0.0494 343.8123 0004534 351.5350  24.6242  5.00117366 35353
O3B MPOWER F3           
1 56368U 23059B   25068.29697059 -.00000031  00000+0  00000+0 0  9998
2 56368   0.0506 343.0300 0006334   3.7978  13.1490  5.00116618 31475
O3B MPOWER F5           
1 58346U 23175A   25068.76305967 -.00000031  00000+0  00000+0 0  9991
2 58346   0.0645   0.0871 0007072 338.9885  20.8887  5.00117231 26202
O3B MPOWER F6           
1 58347U 23175B   25068.86309068 -.00000031  00000+0  00000+0 0  9999
2 58347   0.0576 356.0223 0007446 359.4566   4.5075  5.00117569 25111
ASTRA 1P (SES-24)       
1 60086U 24115A   25068.76058127  .00000102  00000+0  00000+0 0  9991
2 60086   0.0844 315.0552 0005052   7.8389 137.7707  1.00270866  2549
